[{"OBJECT_NAME":"STARLINK-35996","OBJECT_ID":"2025-278K","EPOCH":"2026-03-09T10:22:44.358240","MEAN_MOTION":15.27581683,"ECCENTRICITY":0.00010291,"INCLINATION":42.9976,"RA_OF_ASC_NODE":115.4772,"ARG_OF_PERICENTER":262.9812,"MEAN_ANOMALY":97.0923,"EPHEMERIS_TYPE":0,"CLASSIFICATION_TYPE":"U","NORAD_CAT_ID":66800,"ELEMENT_SET_NO":999,"REV_AT_EPOCH":1517,"BSTAR":0.0011010582,"MEAN_MOTION_DOT":0.00030162,"MEAN_MOTION_DDOT":0},{"OBJECT_NAME":"OBJECT BE","OBJECT_ID":"2025-313BE","EPOCH":"2026-03-09T16:43:59.380320","MEAN_MOTION":15.29801687,"ECCENTRICITY":0.00072083,"INCLINATION":97.3989,"RA_OF_ASC_NODE":145.3568,"ARG_OF_PERICENTER":335.3714,"MEAN_ANOMALY":24.7181,"EPHEMERIS_TYPE":0,"CLASSIFICATION_TYPE":"U","NORAD_CAT_ID":67482,"ELEMENT_SET_NO":999,"REV_AT_EPOCH":797,"BSTAR":0.0026504328,"MEAN_MOTION_DOT":0.00077178,"MEAN_MOTION_DDOT":0}]
