STARLINK-35996          
1 66800U 25278K   26068.43245785  .00030162  00000+0  11011-2 0  9991
2 66800  42.9976 115.4772 0001029 262.9812  97.0923 15.27581683 15178
2025-313BE              
1 67482U 25313BE  26068.69721505  .00077178  00000+0  26504-2 0  9996
2 67482  97.3989 145.3568 0007208 335.3714  24.7181 15.29801687  7972
